CTC1_L_00294001-01
1 28941U 22136QN  26070.40834491  .00000000  00000+0  00000-0 0  9995
2 28941 100.0000   0.0000 0000000   0.0000   0.0000 15.18623435    16
CTC1_L_00294001-02
1 28942U 25518BN  26070.40834491  .00000000  00000+0  00000-0 0  9993
2 28942 100.0000   0.0000 0000000   0.0000  90.0000 15.18623435    16
CTC1_L_00294001-03
1 28943U 22045T   26070.40834491  .00000000  00000+0  00000-0 0  9996
2 28943 100.0000   0.0000 0000000   0.0000 180.0000 15.18623435    17
CTC1_L_00294001-04
1 28944U 24222NI  26070.40834491  .00000000  00000+0  00000-0 0  9996
2 28944 100.0000   0.0000 0000000   0.0000 270.0000 15.18623435    18
CTC1_L_00294002-01
1 28945U 23547CH  26070.40834491  .00000000  00000+0  00000-0 0  9996
2 28945 100.0000  12.0000 0000000   0.0000  12.0000 15.18623435    16
CTC1_L_00294002-02
1 28946U 26072YO  26070.40834491  .00000000  00000+0  00000-0 0  9993
2 28946 100.0000  12.0000 0000000   0.0000 102.0000 15.18623435    17
CTC1_L_00294002-03
1 28947U 23768EV  26070.40834491  .00000000  00000+0  00000-0 0  9993
2 28947 100.0000  12.0000 0000000   0.0000 192.0000 15.18623435    17
CTC1_L_00294002-04
1 28948U 22103BT  26070.40834491  .00000000  00000+0  00000-0 0  9996
2 28948 100.0000  12.0000 0000000   0.0000 282.0000 15.18623435    18
CTC1_L_00294003-01
1 28949U 24052WI  26070.40834491  .00000000  00000+0  00000-0 0  9992
2 28949 100.0000  24.0000 0000000   0.0000  24.0000 15.18623435    16
CTC1_L_00294003-02
1 28950U 25927AU  26070.40834491  .00000000  00000+0  00000-0 0  9996
2 28950 100.0000  24.0000 0000000   0.0000 114.0000 15.18623435    18
CTC1_L_00294003-03
1 28951U 23729XI  26070.40834491  .00000000  00000+0  00000-0 0  9995
2 28951 100.0000  24.0000 0000000   0.0000 204.0000 15.18623435    19
CTC1_L_00294003-04
1 28952U 24690EW  26070.40834491  .00000000  00000+0  00000-0 0  9994
2 28952 100.0000  24.0000 0000000   0.0000 294.0000 15.18623435    19
CTC1_L_00294004-01
1 28953U 24056RR  26070.40834491  .00000000  00000+0  00000-0 0  9991
2 28953 100.0000  36.0000 0000000   0.0000  36.0000 15.18623435    17
CTC1_L_00294004-02
1 28954U 24089I   26070.40834491  .00000000  00000+0  00000-0 0  9998
2 28954 100.0000  36.0000 0000000   0.0000 126.0000 15.18623435    18
CTC1_L_00294004-03
1 28955U 26319IO  26070.40834491  .00000000  00000+0  00000-0 0  9997
2 28955 100.0000  36.0000 0000000   0.0000 216.0000 15.18623435    19
CTC1_L_00294004-04
1 28956U 23386GG  26070.40834491  .00000000  00000+0  00000-0 0  9999
2 28956 100.0000  36.0000 0000000   0.0000 306.0000 15.18623435    10
CTC1_L_00294005-01
1 28957U 24140EU  26070.40834491  .00000000  00000+0  00000-0 0  9999
2 28957 100.0000  48.0000 0000000   0.0000  48.0000 15.18623435    17
CTC1_L_00294005-02
1 28958U 22813BT  26070.40834491  .00000000  00000+0  00000-0 0  9995
2 28958 100.0000  48.0000 0000000   0.0000 138.0000 15.18623435    18
CTC1_L_00294005-03
1 28959U 26630UI  26070.40834491  .00000000  00000+0  00000-0 0  9997
2 28959 100.0000  48.0000 0000000   0.0000 228.0000 15.18623435    19
CTC1_L_00294005-04
1 28960U 24330OQ  26070.40834491  .00000000  00000+0  00000-0 0  9994
2 28960 100.0000  48.0000 0000000   0.0000 318.0000 15.18623435    11
CTC1_L_00294006-01
1 28961U 24502CK  26070.40834491  .00000000  00000+0  00000-0 0  9996
2 28961 100.0000  60.0000 0000000   0.0000  60.0000 15.18623435    10
CTC1_L_00294006-02
1 28962U 26336DF  26070.40834491  .00000000  00000+0  00000-0 0  9994
2 28962 100.0000  60.0000 0000000   0.0000 150.0000 15.18623435    11
CTC1_L_00294006-03
1 28963U 23553KZ  26070.40834491  .00000000  00000+0  00000-0 0  9993
2 28963 100.0000  60.0000 0000000   0.0000 240.0000 15.18623435    12
CTC1_L_00294006-04
1 28964U 22193TH  26070.40834491  .00000000  00000+0  00000-0 0  9993
2 28964 100.0000  60.0000 0000000   0.0000 330.0000 15.18623435    13
CTC1_L_00294007-01
1 28965U 23811ZJ  26070.40834491  .00000000  00000+0  00000-0 0  9992
2 28965 100.0000  72.0000 0000000   0.0000  72.0000 15.18623435    10
CTC1_L_00294007-02
1 28966U 25768KH  26070.40834491  .00000000  00000+0  00000-0 0  9996
2 28966 100.0000  72.0000 0000000   0.0000 162.0000 15.18623435    11
CTC1_L_00294007-03
1 28967U 25930TI  26070.40834491  .00000000  00000+0  00000-0 0  9998
2 28967 100.0000  72.0000 0000000   0.0000 252.0000 15.18623435    12
CTC1_L_00294007-04
1 28968U 24094WF  26070.40834491  .00000000  00000+0  00000-0 0  9999
2 28968 100.0000  72.0000 0000000   0.0000 342.0000 15.18623435    13
CTC1_L_00294008-01
1 28969U 26223EN  26070.40834491  .00000000  00000+0  00000-0 0  9996
2 28969 100.0000  84.0000 0000000   0.0000  84.0000 15.18623435    10
CTC1_L_00294008-02
1 28970U 23061S   26070.40834491  .00000000  00000+0  00000-0 0  9995
2 28970 100.0000  84.0000 0000000   0.0000 174.0000 15.18623435    12
CTC1_L_00294008-03
1 28971U 24517MQ  26070.40834491  .00000000  00000+0  00000-0 0  9993
2 28971 100.0000  84.0000 0000000   0.0000 264.0000 15.18623435    13
CTC1_L_00294008-04
1 28972U 24900TA  26070.40834491  .00000000  00000+0  00000-0 0  9990
2 28972 100.0000  84.0000 0000000   0.0000 354.0000 15.18623435    14
CTC1_L_00294009-01
1 28973U 25983R   26070.40834491  .00000000  00000+0  00000-0 0  9993
2 28973 100.0000  96.0000 0000000   0.0000  96.0000 15.18623435    11
CTC1_L_00294009-02
1 28974U 24634CJ  26070.40834491  .00000000  00000+0  00000-0 0  9996
2 28974 100.0000  96.0000 0000000   0.0000 186.0000 15.18623435    12
CTC1_L_00294009-03
1 28975U 25764AL  26070.40834491  .00000000  00000+0  00000-0 0  9992
2 28975 100.0000  96.0000 0000000   0.0000 276.0000 15.18623435    13
CTC1_L_00294009-04
1 28976U 24464LJ  26070.40834491  .00000000  00000+0  00000-0 0  9999
2 28976 100.0000  96.0000 0000000   0.0000   6.0000 15.18623435    15
CTC1_L_00294010-01
1 28977U 23398GW  26070.40834491  .00000000  00000+0  00000-0 0  9995
2 28977 100.0000 108.0000 0000000   0.0000 108.0000 15.18623435    13
CTC1_L_00294010-02
1 28978U 25794K   26070.40834491  .00000000  00000+0  00000-0 0  9998
2 28978 100.0000 108.0000 0000000   0.0000 198.0000 15.18623435    13
CTC1_L_00294010-03
1 28979U 24666WA  26070.40834491  .00000000  00000+0  00000-0 0  9996
2 28979 100.0000 108.0000 0000000   0.0000 288.0000 15.18623435    14
CTC1_L_00294010-04
1 28980U 24294TR  26070.40834491  .00000000  00000+0  00000-0 0  9995
2 28980 100.0000 108.0000 0000000   0.0000  18.0000 15.18623435    17
CTC1_L_00294011-01
1 28981U 23999EJ  26070.40834491  .00000000  00000+0  00000-0 0  9997
2 28981 100.0000 120.0000 0000000   0.0000 120.0000 15.18623435    16
CTC1_L_00294011-02
1 28982U 25830RR  26070.40834491  .00000000  00000+0  00000-0 0  9994
2 28982 100.0000 120.0000 0000000   0.0000 210.0000 15.18623435    17
CTC1_L_00294011-03
1 28983U 23985XM  26070.40834491  .00000000  00000+0  00000-0 0  9994
2 28983 100.0000 120.0000 0000000   0.0000 300.0000 15.18623435    18
CTC1_L_00294011-04
1 28984U 22567OS  26070.40834491  .00000000  00000+0  00000-0 0  9990
2 28984 100.0000 120.0000 0000000   0.0000  30.0000 15.18623435    19
CTC1_L_00294012-01
1 28985U 25351AK  26070.40834491  .00000000  00000+0  00000-0 0  9995
2 28985 100.0000 132.0000 0000000   0.0000 132.0000 15.18623435    16
CTC1_L_00294012-02
1 28986U 22282MS  26070.40834491  .00000000  00000+0  00000-0 0  9996
2 28986 100.0000 132.0000 0000000   0.0000 222.0000 15.18623435    17
CTC1_L_00294012-03
1 28987U 22554UU  26070.40834491  .00000000  00000+0  00000-0 0  9999
2 28987 100.0000 132.0000 0000000   0.0000 312.0000 15.18623435    18
CTC1_L_00294012-04
1 28988U 23063KE  26070.40834491  .00000000  00000+0  00000-0 0  9996
2 28988 100.0000 132.0000 0000000   0.0000  42.0000 15.18623435    19
CTC1_L_00294013-01
1 28989U 22077EX  26070.40834491  .00000000  00000+0  00000-0 0  9991
2 28989 100.0000 144.0000 0000000   0.0000 144.0000 15.18623435    16
CTC1_L_00294013-02
1 28990U 22846ZY  26070.40834491  .00000000  00000+0  00000-0 0  9997
2 28990 100.0000 144.0000 0000000   0.0000 234.0000 15.18623435    18
CTC1_L_00294013-03
1 28991U 22955HY  26070.40834491  .00000000  00000+0  00000-0 0  9999
2 28991 100.0000 144.0000 0000000   0.0000 324.0000 15.18623435    19
CTC1_L_00294013-04
1 28992U 24609WG  26070.40834491  .00000000  00000+0  00000-0 0  9998
2 28992 100.0000 144.0000 0000000   0.0000  54.0000 15.18623435    10
CTC1_L_00294014-01
1 28993U 22117CV  26070.40834491  .00000000  00000+0  00000-0 0  9991
2 28993 100.0000 156.0000 0000000   0.0000 156.0000 15.18623435    17
CTC1_L_00294014-02
1 28994U 25003TI  26070.40834491  .00000000  00000+0  00000-0 0  9999
2 28994 100.0000 156.0000 0000000   0.0000 246.0000 15.18623435    18
CTC1_L_00294014-03
1 28995U 23749SW  26070.40834491  .00000000  00000+0  00000-0 0  9995
2 28995 100.0000 156.0000 0000000   0.0000 336.0000 15.18623435    19
CTC1_L_00294014-04
1 28996U 25413SF  26070.40834491  .00000000  00000+0  00000-0 0  9996
2 28996 100.0000 156.0000 0000000   0.0000  66.0000 15.18623435    10
CTC1_L_00294015-01
1 28997U 26472BT  26070.40834491  .00000000  00000+0  00000-0 0  9993
2 28997 100.0000 168.0000 0000000   0.0000 168.0000 15.18623435    17
CTC1_L_00294015-02
1 28998U 23829CO  26070.40834491  .00000000  00000+0  00000-0 0  9997
2 28998 100.0000 168.0000 0000000   0.0000 258.0000 15.18623435    18
CTC1_L_00294015-03
1 28999U 24437YF  26070.40834491  .00000000  00000+0  00000-0 0  9994
2 28999 100.0000 168.0000 0000000   0.0000 348.0000 15.18623435    19
CTC1_L_00294015-04
1 29000U 22057TV  26070.40834491  .00000000  00000+0  00000-0 0  9994
2 29000 100.0000 168.0000 0000000   0.0000  78.0000 15.18623435    13
CTC1_L_00294016-01
1 29001U 24354WH  26070.40834491  .00000000  00000+0  00000-0 0  9997
2 29001 100.0000 180.0000 0000000   0.0000 180.0000 15.18623435    12
CTC1_L_00294016-02
1 29002U 24852KB  26070.40834491  .00000000  00000+0  00000-0 0  9991
2 29002 100.0000 180.0000 0000000   0.0000 270.0000 15.18623435    13
